[{"OBJECT_NAME":"TIANQI-35","OBJECT_ID":"2024-245C","EPOCH":"2026-03-09T22:48:29.661984","MEAN_MOTION":13.99155463,"ECCENTRICITY":0.00115717,"INCLINATION":44.9856,"RA_OF_ASC_NODE":43.2512,"ARG_OF_PERICENTER":259.4757,"MEAN_ANOMALY":100.4772,"EPHEMERIS_TYPE":0,"CLASSIFICATION_TYPE":"U","NORAD_CAT_ID":62367,"ELEMENT_SET_NO":999,"REV_AT_EPOCH":6244,"BSTAR":0.00014384767,"MEAN_MOTION_DOT":8.1e-7,"MEAN_MOTION_DDOT":0},{"OBJECT_NAME":"COSMOS 1275 DEB","OBJECT_ID":"1981-053Z","EPOCH":"2026-03-09T23:23:13.241184","MEAN_MOTION":14.04199651,"ECCENTRICITY":0.00707772,"INCLINATION":82.9972,"RA_OF_ASC_NODE":248.3868,"ARG_OF_PERICENTER":86.1371,"MEAN_ANOMALY":77.1008,"EPHEMERIS_TYPE":0,"CLASSIFICATION_TYPE":"U","NORAD_CAT_ID":12669,"ELEMENT_SET_NO":999,"REV_AT_EPOCH":25078,"BSTAR":0.0015776681,"MEAN_MOTION_DOT":2.575e-5,"MEAN_MOTION_DDOT":0}]
